[{"OBJECT_NAME":"LILIUM-1","OBJECT_ID":"2023-185F","EPOCH":"2026-03-09T22:28:56.680896","MEAN_MOTION":15.66968582,"ECCENTRICITY":0.00057383,"INCLINATION":97.3316,"RA_OF_ASC_NODE":147.7332,"ARG_OF_PERICENTER":186.5847,"MEAN_ANOMALY":173.5339,"EPHEMERIS_TYPE":0,"CLASSIFICATION_TYPE":"U","NORAD_CAT_ID":58467,"ELEMENT_SET_NO":999,"REV_AT_EPOCH":12691,"BSTAR":0.0013028575,"MEAN_MOTION_DOT":0.00140249,"MEAN_MOTION_DDOT":0},{"OBJECT_NAME":"STARLINK-11301 [DTC]","OBJECT_ID":"2024-204M","EPOCH":"2026-03-09T23:34:25.521312","MEAN_MOTION":15.69710069,"ECCENTRICITY":0.0001063,"INCLINATION":53.1583,"RA_OF_ASC_NODE":354.5896,"ARG_OF_PERICENTER":54.5649,"MEAN_ANOMALY":305.5468,"EPHEMERIS_TYPE":0,"CLASSIFICATION_TYPE":"U","NORAD_CAT_ID":61885,"ELEMENT_SET_NO":999,"REV_AT_EPOCH":7696,"BSTAR":4.6209369e-5,"MEAN_MOTION_DOT":5.013e-5,"MEAN_MOTION_DDOT":0}]
